H-2A R/B                
1 28932U 06002B   26080.15580638  .00011888  00000+0  59021-3 0  9999
2 28932  98.2437 228.1689 0052225 201.7002 158.2016 15.16655641 96179
RESURS-DK 1             
1 29228U 06021A   26079.77623799  .00002889  00000+0  17014-3 0  9998
2 29228  69.9338 208.3434 0000782 127.4073 232.7165 15.12817965 89208
CZ-4B R/B               
1 29507U 06046C   26080.02084566  .00004015  00000+0  20409-3 0  9993
2 29507  97.5567 124.8986 0032063 226.2465 133.6113 15.17009128 61765
CZ-2C R/B               
1 31114U 07010B   26080.20927826  .00000124  00000+0  76248-4 0  9997
2 31114  98.3989 192.9112 0057866 260.4605  99.0031 14.20250174981352
COSMO-SKYMED 1          
1 31598U 07023A   26080.23128579  .00002825  00000+0  25313-3 0  9994
2 31598  97.8880 271.3575 0001329  86.0971 274.0402 14.96621222 16634
COSMOS 2428             
1 31792U 07029A   26080.14510092 -.00000007  00000+0  22056-4 0  9994
2 31792  70.9441 179.3008 0009549 265.3812  94.6219 14.12947630965717
SL-16 R/B               
1 31793U 07029B   26080.30035940  .00000332  00000+0  19672-3 0  9996
2 31793  70.9756 147.9797 0002392 276.6568 146.3858 14.14840141967015
KORONAS-FOTON           
1 33504U 09003A   26080.23951668  .00016638  00000+0  36818-3 0  9995
2 33504  82.4270 263.8653 0011799 112.0657 248.1845 15.43594228947524
CZ-2C R/B               
1 37731U 11030B   26079.89341111  .00001334  00000+0  17423-3 0  9998
2 37731  97.8564  36.9338 0051494 315.2259 107.4985 14.81261278791757
H-2A R/B                
1 38341U 12025E   26079.90435340  .00002859  00000+0  26147-3 0  9997
2 38341  98.4748  47.8500 0043086 276.3217  83.3095 14.95240565749890
SHIJIAN-16 (SJ-16)      
1 39358U 13057A   26080.29360243  .00000705  00000+0  71586-4 0  9991
2 39358  74.9736 163.1228 0015290  82.5342 277.7583 14.92388663673230
SL-4 R/B                
1 39679U 14021B   26080.24934352  .00017503  00000+0  38085-3 0  9992
2 39679  51.6052 280.8682 0096569 145.0922 215.6446 15.39538542658054
