CCSDS_OMM_VERS = 2.0
CREATION_DATE  = 
ORIGINATOR     = 

OBJECT_NAME    = H-2A R/B
OBJECT_ID      = 2006-002B
CENTER_NAME    = EARTH
REF_FRAME      = TEME
TIME_SYSTEM    = UTC
MEAN_ELEMENT_THEORY = SGP/SGP4

EPOCH          = 2026-03-21T03:44:21.671232
MEAN_MOTION    = 15.16655641
ECCENTRICITY   = .00522258
INCLINATION    = 98.2437
RA_OF_ASC_NODE = 228.1689
ARG_OF_PERICENTER = 201.7002
MEAN_ANOMALY   = 158.2016

EPHEMERIS_TYPE = 0
CLASSIFICATION_TYPE = U
NORAD_CAT_ID   = 28932
ELEMENT_SET_NO = 999
REV_AT_EPOCH   = 9617
BSTAR          = .59021147E-3
MEAN_MOTION_DOT = .11888E-3
MEAN_MOTION_DDOT = 0

CCSDS_OMM_VERS = 2.0
CREATION_DATE  = 
ORIGINATOR     = 

OBJECT_NAME    = RESURS-DK 1
OBJECT_ID      = 2006-021A
CENTER_NAME    = EARTH
REF_FRAME      = TEME
TIME_SYSTEM    = UTC
MEAN_ELEMENT_THEORY = SGP/SGP4

EPOCH          = 2026-03-20T18:37:46.962336
MEAN_MOTION    = 15.12817965
ECCENTRICITY   = .00007822
INCLINATION    = 69.9338
RA_OF_ASC_NODE = 208.3434
ARG_OF_PERICENTER = 127.4073
MEAN_ANOMALY   = 232.7165

EPHEMERIS_TYPE = 0
CLASSIFICATION_TYPE = U
NORAD_CAT_ID   = 29228
ELEMENT_SET_NO = 999
REV_AT_EPOCH   = 8920
BSTAR          = .17014071E-3
MEAN_MOTION_DOT = .2889E-4
MEAN_MOTION_DDOT = 0

CCSDS_OMM_VERS = 2.0
CREATION_DATE  = 
ORIGINATOR     = 

OBJECT_NAME    = CZ-4B R/B
OBJECT_ID      = 2006-046C
CENTER_NAME    = EARTH
REF_FRAME      = TEME
TIME_SYSTEM    = UTC
MEAN_ELEMENT_THEORY = SGP/SGP4

EPOCH          = 2026-03-21T00:30:01.065024
MEAN_MOTION    = 15.17009128
ECCENTRICITY   = .00320631
INCLINATION    = 97.5567
RA_OF_ASC_NODE = 124.8986
ARG_OF_PERICENTER = 226.2465
MEAN_ANOMALY   = 133.6113

EPHEMERIS_TYPE = 0
CLASSIFICATION_TYPE = U
NORAD_CAT_ID   = 29507
ELEMENT_SET_NO = 999
REV_AT_EPOCH   = 6176
BSTAR          = .20408821E-3
MEAN_MOTION_DOT = .4015E-4
MEAN_MOTION_DDOT = 0

CCSDS_OMM_VERS = 2.0
CREATION_DATE  = 
ORIGINATOR     = 

OBJECT_NAME    = CZ-2C R/B
OBJECT_ID      = 2007-010B
CENTER_NAME    = EARTH
REF_FRAME      = TEME
TIME_SYSTEM    = UTC
MEAN_ELEMENT_THEORY = SGP/SGP4

EPOCH          = 2026-03-21T05:01:21.641664
MEAN_MOTION    = 14.20250174
ECCENTRICITY   = .00578667
INCLINATION    = 98.3989
RA_OF_ASC_NODE = 192.9112
ARG_OF_PERICENTER = 260.4605
MEAN_ANOMALY   = 99.0031

EPHEMERIS_TYPE = 0
CLASSIFICATION_TYPE = U
NORAD_CAT_ID   = 31114
ELEMENT_SET_NO = 999
REV_AT_EPOCH   = 98135
BSTAR          = .76247614E-4
MEAN_MOTION_DOT = .124E-5
MEAN_MOTION_DDOT = 0

CCSDS_OMM_VERS = 2.0
CREATION_DATE  = 
ORIGINATOR     = 

OBJECT_NAME    = COSMO-SKYMED 1
OBJECT_ID      = 2007-023A
CENTER_NAME    = EARTH
REF_FRAME      = TEME
TIME_SYSTEM    = UTC
MEAN_ELEMENT_THEORY = SGP/SGP4

EPOCH          = 2026-03-21T05:33:03.092256
MEAN_MOTION    = 14.96621222
ECCENTRICITY   = .00013299
INCLINATION    = 97.8880
RA_OF_ASC_NODE = 271.3575
ARG_OF_PERICENTER = 86.0971
MEAN_ANOMALY   = 274.0402

EPHEMERIS_TYPE = 0
CLASSIFICATION_TYPE = U
NORAD_CAT_ID   = 31598
ELEMENT_SET_NO = 999
REV_AT_EPOCH   = 1663
BSTAR          = .25312529E-3
MEAN_MOTION_DOT = .2825E-4
MEAN_MOTION_DDOT = 0

CCSDS_OMM_VERS = 2.0
CREATION_DATE  = 
ORIGINATOR     = 

OBJECT_NAME    = COSMOS 2428
OBJECT_ID      = 2007-029A
CENTER_NAME    = EARTH
REF_FRAME      = TEME
TIME_SYSTEM    = UTC
MEAN_ELEMENT_THEORY = SGP/SGP4

EPOCH          = 2026-03-21T03:28:56.719488
MEAN_MOTION    = 14.12947630
ECCENTRICITY   = .00095494
INCLINATION    = 70.9441
RA_OF_ASC_NODE = 179.3008
ARG_OF_PERICENTER = 265.3812
MEAN_ANOMALY   = 94.6219

EPHEMERIS_TYPE = 0
CLASSIFICATION_TYPE = U
NORAD_CAT_ID   = 31792
ELEMENT_SET_NO = 999
REV_AT_EPOCH   = 96571
BSTAR          = .22055693E-4
MEAN_MOTION_DOT = -.7E-7
MEAN_MOTION_DDOT = 0

CCSDS_OMM_VERS = 2.0
CREATION_DATE  = 
ORIGINATOR     = 

OBJECT_NAME    = SL-16 R/B
OBJECT_ID      = 2007-029B
CENTER_NAME    = EARTH
REF_FRAME      = TEME
TIME_SYSTEM    = UTC
MEAN_ELEMENT_THEORY = SGP/SGP4

EPOCH          = 2026-03-21T07:12:31.052160
MEAN_MOTION    = 14.14840141
ECCENTRICITY   = .00023921
INCLINATION    = 70.9756
RA_OF_ASC_NODE = 147.9797
ARG_OF_PERICENTER = 276.6568
MEAN_ANOMALY   = 146.3858

EPHEMERIS_TYPE = 0
CLASSIFICATION_TYPE = U
NORAD_CAT_ID   = 31793
ELEMENT_SET_NO = 999
REV_AT_EPOCH   = 96701
BSTAR          = .19672136E-3
MEAN_MOTION_DOT = .332E-5
MEAN_MOTION_DDOT = 0

CCSDS_OMM_VERS = 2.0
CREATION_DATE  = 
ORIGINATOR     = 

OBJECT_NAME    = KORONAS-FOTON
OBJECT_ID      = 2009-003A
CENTER_NAME    = EARTH
REF_FRAME      = TEME
TIME_SYSTEM    = UTC
MEAN_ELEMENT_THEORY = SGP/SGP4

EPOCH          = 2026-03-21T05:44:54.241152
MEAN_MOTION    = 15.43594228
ECCENTRICITY   = .00117992
INCLINATION    = 82.4270
RA_OF_ASC_NODE = 263.8653
ARG_OF_PERICENTER = 112.0657
MEAN_ANOMALY   = 248.1845

EPHEMERIS_TYPE = 0
CLASSIFICATION_TYPE = U
NORAD_CAT_ID   = 33504
ELEMENT_SET_NO = 999
REV_AT_EPOCH   = 94752
BSTAR          = .3681764E-3
MEAN_MOTION_DOT = .16638E-3
MEAN_MOTION_DDOT = 0

CCSDS_OMM_VERS = 2.0
CREATION_DATE  = 
ORIGINATOR     = 

OBJECT_NAME    = CZ-2C R/B
OBJECT_ID      = 2011-030B
CENTER_NAME    = EARTH
REF_FRAME      = TEME
TIME_SYSTEM    = UTC
MEAN_ELEMENT_THEORY = SGP/SGP4

EPOCH          = 2026-03-20T21:26:30.719904
MEAN_MOTION    = 14.81261278
ECCENTRICITY   = .00514946
INCLINATION    = 97.8564
RA_OF_ASC_NODE = 36.9338
ARG_OF_PERICENTER = 315.2259
MEAN_ANOMALY   = 107.4985

EPHEMERIS_TYPE = 0
CLASSIFICATION_TYPE = U
NORAD_CAT_ID   = 37731
ELEMENT_SET_NO = 999
REV_AT_EPOCH   = 79175
BSTAR          = .17422771E-3
MEAN_MOTION_DOT = .1334E-4
MEAN_MOTION_DDOT = 0

CCSDS_OMM_VERS = 2.0
CREATION_DATE  = 
ORIGINATOR     = 

OBJECT_NAME    = H-2A R/B
OBJECT_ID      = 2012-025E
CENTER_NAME    = EARTH
REF_FRAME      = TEME
TIME_SYSTEM    = UTC
MEAN_ELEMENT_THEORY = SGP/SGP4

EPOCH          = 2026-03-20T21:42:16.133760
MEAN_MOTION    = 14.95240565
ECCENTRICITY   = .00430866
INCLINATION    = 98.4748
RA_OF_ASC_NODE = 47.8500
ARG_OF_PERICENTER = 276.3217
MEAN_ANOMALY   = 83.3095

EPHEMERIS_TYPE = 0
CLASSIFICATION_TYPE = U
NORAD_CAT_ID   = 38341
ELEMENT_SET_NO = 999
REV_AT_EPOCH   = 74989
BSTAR          = .26147436E-3
MEAN_MOTION_DOT = .2859E-4
MEAN_MOTION_DDOT = 0

CCSDS_OMM_VERS = 2.0
CREATION_DATE  = 
ORIGINATOR     = 

OBJECT_NAME    = SHIJIAN-16 (SJ-16)
OBJECT_ID      = 2013-057A
CENTER_NAME    = EARTH
REF_FRAME      = TEME
TIME_SYSTEM    = UTC
MEAN_ELEMENT_THEORY = SGP/SGP4

EPOCH          = 2026-03-21T07:02:47.249952
MEAN_MOTION    = 14.92388663
ECCENTRICITY   = .00152908
INCLINATION    = 74.9736
RA_OF_ASC_NODE = 163.1228
ARG_OF_PERICENTER = 82.5342
MEAN_ANOMALY   = 277.7583

EPHEMERIS_TYPE = 0
CLASSIFICATION_TYPE = U
NORAD_CAT_ID   = 39358
ELEMENT_SET_NO = 999
REV_AT_EPOCH   = 67323
BSTAR          = .71585904E-4
MEAN_MOTION_DOT = .705E-5
MEAN_MOTION_DDOT = 0

CCSDS_OMM_VERS = 2.0
CREATION_DATE  = 
ORIGINATOR     = 

OBJECT_NAME    = SL-4 R/B
OBJECT_ID      = 2014-021B
CENTER_NAME    = EARTH
REF_FRAME      = TEME
TIME_SYSTEM    = UTC
MEAN_ELEMENT_THEORY = SGP/SGP4

EPOCH          = 2026-03-21T05:59:03.280128
MEAN_MOTION    = 15.39538542
ECCENTRICITY   = .00965699
INCLINATION    = 51.6052
RA_OF_ASC_NODE = 280.8682
ARG_OF_PERICENTER = 145.0922
MEAN_ANOMALY   = 215.6446

EPHEMERIS_TYPE = 0
CLASSIFICATION_TYPE = U
NORAD_CAT_ID   = 39679
ELEMENT_SET_NO = 999
REV_AT_EPOCH   = 65805
BSTAR          = .38085493E-3
MEAN_MOTION_DOT = .17503E-3
MEAN_MOTION_DDOT = 0

